{"type": "FeatureCollection", "features": [ {"type": "Feature", "properties": {"norad_id": 42741, "name": "EUTELSAT 172B", "group": "eutelsat", "lat": 0.002495239981787287, "lon": -178.1620477081698, "alt_km": 35787.3440649991, "timestamp": "2025-12-15T19:00:45.017916+00:00", "meta": {"OBJECT_NAME": "EUTELSAT 172B", "OBJECT_ID": "2017-029B", "EPOCH": "2025-12-14T21:05:09.641184", "MEAN_MOTION": 1.00269602, "ECCENTRICITY": 2.675e-05, "INCLINATION": 0.013, "RA_OF_ASC_NODE": 59.1201, "ARG_OF_PERICENTER": 354.8416, "MEAN_ANOMALY": 158.0939, "EPHEMERIS_TYPE": 0, "CLASSIFICATION_TYPE": "U", "NORAD_CAT_ID": 42741, "ELEMENT_SET_NO": 999, "REV_AT_EPOCH": 3188, "BSTAR": 0, "MEAN_MOTION_DOT": 0, "MEAN_MOTION_DDOT": 0}, "tle": {"line1": "1 42741U 17029B   25348.87858381  .00000000  00000+0  00000+0 0  9995", "line2": "2 42741   0.0130  59.1201 0000267 354.8416 158.0939  1.00269602 31889"}}, "geometry": {"type": "Point", "coordinates": [-178.1620477081698, 0.002495239981787287]}}, {"type": "Feature", "properties": {"norad_id": 44334, "name": "EUTELSAT 7C", "group": "eutelsat", "lat": -0.0018422748363147964, "lon": 16.877600436747073, "alt_km": 35793.572153472436, "timestamp": "2025-12-15T19:00:45.017928+00:00", "meta": {"OBJECT_NAME": "EUTELSAT 7C", "OBJECT_ID": "2019-034B", "EPOCH": "2025-12-14T22:09:38.644416", "MEAN_MOTION": 1.00269677, "ECCENTRICITY": 0.00030404, "INCLINATION": 0.0727, "RA_OF_ASC_NODE": 177.7065, "ARG_OF_PERICENTER": 76.376, "MEAN_ANOMALY": 169.15, "EPHEMERIS_TYPE": 0, "CLASSIFICATION_TYPE": "U", "NORAD_CAT_ID": 44334, "ELEMENT_SET_NO": 999, "REV_AT_EPOCH": 498, "BSTAR": 0, "MEAN_MOTION_DOT": 6.8e-07, "MEAN_MOTION_DDOT": 0}, "tle": {"line1": "1 44334U 19034B   25348.92336394  .00000068  00000+0  00000+0 0  9998", "line2": "2 44334   0.0727 177.7065 0003040  76.3760 169.1500  1.00269677  4986"}}, "geometry": {"type": "Point", "coordinates": [16.877600436747073, -0.0018422748363147964]}}, {"type": "Feature", "properties": {"norad_id": 44624, "name": "EUTELSAT 5 WEST B", "group": "eutelsat", "lat": 0.040129470008455966, "lon": 4.908228689608581, "alt_km": 35788.32268672305, "timestamp": "2025-12-15T19:00:45.017940+00:00", "meta": {"OBJECT_NAME": "EUTELSAT 5 WEST B", "OBJECT_ID": "2019-067A", "EPOCH": "2025-12-14T21:57:19.642752", "MEAN_MOTION": 1.00272512, "ECCENTRICITY": 0.0003227, "INCLINATION": 0.0651, "RA_OF_ASC_NODE": 338.3531, "ARG_OF_PERICENTER": 286.172, "MEAN_ANOMALY": 143.635, "EPHEMERIS_TYPE": 0, "CLASSIFICATION_TYPE": "U", "NORAD_CAT_ID": 44624, "ELEMENT_SET_NO": 999, "REV_AT_EPOCH": 2258, "BSTAR": 0, "MEAN_MOTION_DOT": -2.2e-07, "MEAN_MOTION_DDOT": 0}, "tle": {"line1": "1 44624U 19067A   25348.91481068 -.00000022  00000+0  00000+0 0  9995", "line2": "2 44624   0.0651 338.3531 0003227 286.1720 143.6350  1.00272512 22589"}}, "geometry": {"type": "Point", "coordinates": [4.908228689608581, 0.040129470008455966]}}, {"type": "Feature", "properties": {"norad_id": 45027, "name": "EUTELSAT KONNECT", "group": "eutelsat", "lat": -0.049072410368649115, "lon": 17.084048308357993, "alt_km": 35786.68140146743, "timestamp": "2025-12-15T19:00:45.017952+00:00", "meta": {"OBJECT_NAME": "EUTELSAT KONNECT", "OBJECT_ID": "2020-005B", "EPOCH": "2025-12-14T22:09:38.644416", "MEAN_MOTION": 1.00270412, "ECCENTRICITY": 0.00013798, "INCLINATION": 0.0689, "RA_OF_ASC_NODE": 97.0376, "ARG_OF_PERICENTER": 187.5584, "MEAN_ANOMALY": 138.8542, "EPHEMERIS_TYPE": 0, "CLASSIFICATION_TYPE": "U", "NORAD_CAT_ID": 45027, "ELEMENT_SET_NO": 999, "REV_AT_EPOCH": 2248, "BSTAR": 0, "MEAN_MOTION_DOT": 6.9e-07, "MEAN_MOTION_DDOT": 0}, "tle": {"line1": "1 45027U 20005B   25348.92336394  .00000069  00000+0  00000+0 0  9999", "line2": "2 45027   0.0689  97.0376 0001379 187.5584 138.8542  1.00270412 22487"}}, "geometry": {"type": "Point", "coordinates": [17.084048308357993, -0.049072410368649115]}}, {"type": "Feature", "properties": {"norad_id": 49056, "name": "EUTELSAT QUANTUM", "group": "eutelsat", "lat": 0.03131509064832492, "lon": 57.61377901722161, "alt_km": 35797.45956727057, "timestamp": "2025-12-15T19:00:45.017963+00:00", "meta": {"OBJECT_NAME": "EUTELSAT QUANTUM", "OBJECT_ID": "2021-069B", "EPOCH": "2025-12-14T22:12:18.208800", "MEAN_MOTION": 1.00274118, "ECCENTRICITY": 0.00036438, "INCLINATION": 0.0107, "RA_OF_ASC_NODE": 353.0014, "ARG_OF_PERICENTER": 282.8168, "MEAN_ANOMALY": 188.8068, "EPHEMERIS_TYPE": 0, "CLASSIFICATION_TYPE": "U", "NORAD_CAT_ID": 49056, "ELEMENT_SET_NO": 999, "REV_AT_EPOCH": 1608, "BSTAR": 0, "MEAN_MOTION_DOT": 1.46e-06, "MEAN_MOTION_DDOT": 0}, "tle": {"line1": "1 49056U 21069B   25348.92521075  .00000146  00000+0  00000+0 0  9994", "line2": "2 49056   0.0107 353.0014 0003643 282.8168 188.8068  1.00274118 16089"}}, "geometry": {"type": "Point", "coordinates": [57.61377901722161, 0.03131509064832492]}}, {"type": "Feature", "properties": {"norad_id": 53765, "name": "EUTELSAT KONNECT VHTS", "group": "eutelsat", "lat": -0.047914602816385814, "lon": 12.613216245516922, "alt_km": 35792.73891819044, "timestamp": "2025-12-15T19:00:45.017975+00:00", "meta": {"OBJECT_NAME": "EUTELSAT KONNECT VHTS", "OBJECT_ID": "2022-110A", "EPOCH": "2025-12-14T21:55:51.894048", "MEAN_MOTION": 1.0027074, "ECCENTRICITY": 0.00023429, "INCLINATION": 0.0653, "RA_OF_ASC_NODE": 101.3375, "ARG_OF_PERICENTER": 140.8522, "MEAN_ANOMALY": 173.3298, "EPHEMERIS_TYPE": 0, "CLASSIFICATION_TYPE": "U", "NORAD_CAT_ID": 53765, "ELEMENT_SET_NO": 999, "REV_AT_EPOCH": 497, "BSTAR": 0, "MEAN_MOTION_DOT": 3.7e-07, "MEAN_MOTION_DDOT": 0}, "tle": {"line1": "1 53765U 22110A   25348.91379507  .00000037  00000+0  00000+0 0  9993", "line2": "2 53765   0.0653 101.3375 0002342 140.8522 173.3298  1.00270740  4979"}}, "geometry": {"type": "Point", "coordinates": [12.613216245516922, -0.047914602816385814]}}, {"type": "Feature", "properties": {"norad_id": 54048, "name": "EUTELSAT HOTBIRD 13F", "group": "eutelsat", "lat": 0.06343983027690192, "lon": 22.870450039668277, "alt_km": 35776.906877828296, "timestamp": "2025-12-15T19:00:45.017987+00:00", "meta": {"OBJECT_NAME": "EUTELSAT HOTBIRD 13F", "OBJECT_ID": "2022-134A", "EPOCH": "2025-12-14T22:02:26.653056", "MEAN_MOTION": 1.0027139, "ECCENTRICITY": 0.00023413, "INCLINATION": 0.0492, "RA_OF_ASC_NODE": 293.4772, "ARG_OF_PERICENTER": 68.5165, "MEAN_ANOMALY": 65.4415, "EPHEMERIS_TYPE": 0, "CLASSIFICATION_TYPE": "U", "NORAD_CAT_ID": 54048, "ELEMENT_SET_NO": 999, "REV_AT_EPOCH": 1152, "BSTAR": 0, "MEAN_MOTION_DOT": 1.07e-06, "MEAN_MOTION_DDOT": 0}, "tle": {"line1": "1 54048U 22134A   25348.91836404  .00000107  00000+0  00000+0 0  9996", "line2": "2 54048   0.0492 293.4772 0002341  68.5165  65.4415  1.00271390 11520"}}, "geometry": {"type": "Point", "coordinates": [22.870450039668277, 0.06343983027690192]}}, {"type": "Feature", "properties": {"norad_id": 54225, "name": "EUTELSAT HOTBIRD 13G", "group": "eutelsat", "lat": 0.03821896818235228, "lon": 22.85151863013708, "alt_km": 35792.53316348273, "timestamp": "2025-12-15T19:00:45.017999+00:00", "meta": {"OBJECT_NAME": "EUTELSAT HOTBIRD 13G", "OBJECT_ID": "2022-146A", "EPOCH": "2025-12-14T22:02:26.653056", "MEAN_MOTION": 1.00272208, "ECCENTRICITY": 0.00017635, "INCLINATION": 0.0483, "RA_OF_ASC_NODE": 235.8352, "ARG_OF_PERICENTER": 301.0264, "MEAN_ANOMALY": 250.5702, "EPHEMERIS_TYPE": 0, "CLASSIFICATION_TYPE": "U", "NORAD_CAT_ID": 54225, "ELEMENT_SET_NO": 999, "REV_AT_EPOCH": 561, "BSTAR": 0, "MEAN_MOTION_DOT": 1.07e-06, "MEAN_MOTION_DDOT": 0}, "tle": {"line1": "1 54225U 22146A   25348.91836404  .00000107  00000+0  00000+0 0  9996", "line2": "2 54225   0.0483 235.8352 0001763 301.0264 250.5702  1.00272208  5611"}}, "geometry": {"type": "Point", "coordinates": [22.85151863013708, 0.03821896818235228]}}, {"type": "Feature", "properties": {"norad_id": 54259, "name": "EUTELSAT 10B", "group": "eutelsat", "lat": -0.040475301264203845, "lon": 19.828946430465265, "alt_km": 35787.32365950641, "timestamp": "2025-12-15T19:00:45.018010+00:00", "meta": {"OBJECT_NAME": "EUTELSAT 10B", "OBJECT_ID": "2022-157A", "EPOCH": "2025-12-14T22:09:38.644416", "MEAN_MOTION": 1.00271232, "ECCENTRICITY": 6.538e-05, "INCLINATION": 0.0621, "RA_OF_ASC_NODE": 99.2676, "ARG_OF_PERICENTER": 35.6411, "MEAN_ANOMALY": 291.3064, "EPHEMERIS_TYPE": 0, "CLASSIFICATION_TYPE": "U", "NORAD_CAT_ID": 54259, "ELEMENT_SET_NO": 999, "REV_AT_EPOCH": 1117, "BSTAR": 0, "MEAN_MOTION_DOT": 8.8e-07, "MEAN_MOTION_DDOT": 0}, "tle": {"line1": "1 54259U 22157A   25348.92336394  .00000088  00000+0  00000+0 0  9997", "line2": "2 54259   0.0621  99.2676 0000653  35.6411 291.3064  1.00271232 11172"}}, "geometry": {"type": "Point", "coordinates": [19.828946430465265, -0.040475301264203845]}}, {"type": "Feature", "properties": {"norad_id": 59346, "name": "EUTELSAT 36D", "group": "eutelsat", "lat": 0.03745472399241514, "lon": 45.70195010931142, "alt_km": 35784.378947407764, "timestamp": "2025-12-15T19:00:45.018021+00:00", "meta": {"OBJECT_NAME": "EUTELSAT 36D", "OBJECT_ID": "2024-059A", "EPOCH": "2025-12-14T22:08:56.031936", "MEAN_MOTION": 1.00270798, "ECCENTRICITY": 6.181e-05, "INCLINATION": 0.0221, "RA_OF_ASC_NODE": 354.3445, "ARG_OF_PERICENTER": 6.9474, "MEAN_ANOMALY": 90.6078, "EPHEMERIS_TYPE": 0, "CLASSIFICATION_TYPE": "U", "NORAD_CAT_ID": 59346, "ELEMENT_SET_NO": 999, "REV_AT_EPOCH": 630, "BSTAR": 0, "MEAN_MOTION_DOT": 0, "MEAN_MOTION_DDOT": 0}, "tle": {"line1": "1 59346U 24059A   25348.92287074  .00000000  00000+0  00000+0 0  9996", "line2": "2 59346   0.0221 354.3445 0000618   6.9474  90.6078  1.00270798  6300"}}, "geometry": {"type": "Point", "coordinates": [45.70195010931142, 0.03745472399241514]}}]}